0 RADUGA 3
1 10159U 77071A   13281.75680743  .00000116  00000-0  10000-3 0  4057
2 10159 013.3468 331.3532 0012785 147.2067 212.8649 01.00228977130588
0 RADUGA 3
1 10159U 77071A   13285.74746952  .00000108  00000-0  10000-3 0  4067
2 10159 013.3436 331.3131 0013055 146.6034 213.4660 01.00230808130627
0 RADUGA 3
1 10159U 77071A   13289.73802096  .00000105  00000-0  10000-3 0  4070
2 10159 013.3400 331.2724 0012869 147.3409 212.7094 01.00232651130666
0 RADUGA 3
1 10159U 77071A   13293.72852197  .00000112  00000-0  10000-3 0  4080
2 10159 013.3365 331.2310 0012506 147.7841 212.2546 01.00234509130705
